SENTINEL-5P             
1 42969U 17064A   26197.24206510  .00000010  00000+0  25544-4 0  9997
2 42969  98.7929 139.1678 0001145  93.2479 266.8828 14.19523382453680
